[{"OBJECT_NAME":"STARLINK-30341","OBJECT_ID":"2023-129S","EPOCH":"2026-03-08T04:28:17.963328","MEAN_MOTION":15.03350644,"ECCENTRICITY":0.00018316,"INCLINATION":43.0034,"RA_OF_ASC_NODE":128.0013,"ARG_OF_PERICENTER":279.5727,"MEAN_ANOMALY":80.4909,"EPHEMERIS_TYPE":0,"CLASSIFICATION_TYPE":"U","NORAD_CAT_ID":57714,"ELEMENT_SET_NO":999,"REV_AT_EPOCH":14043,"BSTAR":5.9513685e-5,"MEAN_MOTION_DOT":6.16e-6,"MEAN_MOTION_DDOT":0},{"OBJECT_NAME":"COSMOS 397 DEB","OBJECT_ID":"1971-015Q","EPOCH":"2026-03-09T09:55:46.248672","MEAN_MOTION":13.29121432,"ECCENTRICITY":0.07989519,"INCLINATION":65.7091,"RA_OF_ASC_NODE":48.0294,"ARG_OF_PERICENTER":310.7715,"MEAN_ANOMALY":42.6567,"EPHEMERIS_TYPE":0,"CLASSIFICATION_TYPE":"U","NORAD_CAT_ID":5088,"ELEMENT_SET_NO":999,"REV_AT_EPOCH":61373,"BSTAR":0.0012619219,"MEAN_MOTION_DOT":3.538e-5,"MEAN_MOTION_DDOT":0}]
